{"type": "FeatureCollection", "features": [ {"type": "Feature", "properties": {"norad_id": 34001, "name": "COSMOS 2251 DEB", "group": "cosmos-2251-debris", "lat": 11.104982815414832, "lon": -73.73452299938427, "alt_km": 755.0498166518619, "timestamp": "2025-12-11T22:43:47.663895+00:00", "meta": {"OBJECT_NAME": "COSMOS 2251 DEB", "OBJECT_ID": "1993-036GL", "EPOCH": "2025-12-11T06:40:01.199424", "MEAN_MOTION": 14.37095987, "ECCENTRICITY": 0.00199125, "INCLINATION": 74.0387, "RA_OF_ASC_NODE": 284.2753, "ARG_OF_PERICENTER": 5.618, "MEAN_ANOMALY": 144.8218, "EPHEMERIS_TYPE": 0, "CLASSIFICATION_TYPE": "U", "NORAD_CAT_ID": 34001, "ELEMENT_SET_NO": 999, "REV_AT_EPOCH": 88125, "BSTAR": 0.00036236049, "MEAN_MOTION_DOT": 1.052e-05, "MEAN_MOTION_DDOT": 0}, "tle": {"line1": "1 34001U 93036GL  25345.27779166  .00001052  00000+0  36236-3 0  9993", "line2": "2 34001  74.0387 284.2753 0019912   5.6180 144.8218 14.37095987881257"}}, "geometry": {"type": "Point", "coordinates": [-73.73452299938427, 11.104982815414832]}}, {"type": "Feature", "properties": {"norad_id": 34003, "name": "COSMOS 2251 DEB", "group": "cosmos-2251-debris", "lat": 47.86948795269886, "lon": -55.125962820708295, "alt_km": 747.7004952061443, "timestamp": "2025-12-11T22:43:47.663906+00:00", "meta": {"OBJECT_NAME": "COSMOS 2251 DEB", "OBJECT_ID": "1993-036GN", "EPOCH": "2025-12-11T06:53:17.656224", "MEAN_MOTION": 13.84139555, "ECCENTRICITY": 0.02741843, "INCLINATION": 74.0781, "RA_OF_ASC_NODE": 287.5892, "ARG_OF_PERICENTER": 39.9418, "MEAN_ANOMALY": 322.1527, "EPHEMERIS_TYPE": 0, "CLASSIFICATION_TYPE": "U", "NORAD_CAT_ID": 34003, "ELEMENT_SET_NO": 999, "REV_AT_EPOCH": 84405, "BSTAR": 0.0035582926, "MEAN_MOTION_DOT": 5.284e-05, "MEAN_MOTION_DDOT": 0}, "tle": {"line1": "1 34003U 93036GN  25345.28700991  .00005284  00000+0  35583-2 0  9990", "line2": "2 34003  74.0781 287.5892 0274184  39.9418 322.1527 13.84139555844057"}}, "geometry": {"type": "Point", "coordinates": [-55.125962820708295, 47.86948795269886]}}, {"type": "Feature", "properties": {"norad_id": 34004, "name": "COSMOS 2251 DEB", "group": "cosmos-2251-debris", "lat": -41.279506457367425, "lon": 149.15102511495053, "alt_km": 740.6076498674884, "timestamp": "2025-12-11T22:43:47.663916+00:00", "meta": {"OBJECT_NAME": "COSMOS 2251 DEB", "OBJECT_ID": "1993-036GP", "EPOCH": "2025-12-11T08:26:39.546240", "MEAN_MOTION": 14.48990018, "ECCENTRICITY": 0.00333397, "INCLINATION": 74.0359, "RA_OF_ASC_NODE": 315.7121, "ARG_OF_PERICENTER": 328.0643, "MEAN_ANOMALY": 31.8495, "EPHEMERIS_TYPE": 0, "CLASSIFICATION_TYPE": "U", "NORAD_CAT_ID": 34004, "ELEMENT_SET_NO": 999, "REV_AT_EPOCH": 88010, "BSTAR": 0.0025954884, "MEAN_MOTION_DOT": 9.897e-05, "MEAN_MOTION_DDOT": 0}, "tle": {"line1": "1 34004U 93036GP  25345.35184660  .00009897  00000+0  25955-2 0  9994", "line2": "2 34004  74.0359 315.7121 0033339 328.0643  31.8495 14.48990018880109"}}, "geometry": {"type": "Point", "coordinates": [149.15102511495053, -41.279506457367425]}}, {"type": "Feature", "properties": {"norad_id": 34005, "name": "COSMOS 2251 DEB", "group": "cosmos-2251-debris", "lat": 17.119273948523155, "lon": 30.05680704189523, "alt_km": 772.31325523755, "timestamp": "2025-12-11T22:43:47.663927+00:00", "meta": {"OBJECT_NAME": "COSMOS 2251 DEB", "OBJECT_ID": "1993-036GQ", "EPOCH": "2025-12-11T09:14:24.055296", "MEAN_MOTION": 14.4030308, "ECCENTRICITY": 0.00207978, "INCLINATION": 74.0445, "RA_OF_ASC_NODE": 216.1503, "ARG_OF_PERICENTER": 334.5221, "MEAN_ANOMALY": 154.326, "EPHEMERIS_TYPE": 0, "CLASSIFICATION_TYPE": "U", "NORAD_CAT_ID": 34005, "ELEMENT_SET_NO": 999, "REV_AT_EPOCH": 88359, "BSTAR": 0.00017055844, "MEAN_MOTION_DOT": 5.15e-06, "MEAN_MOTION_DDOT": 0}, "tle": {"line1": "1 34005U 93036GQ  25345.38500064  .00000515  00000+0  17056-3 0  9990", "line2": "2 34005  74.0445 216.1503 0020797 334.5221 154.3260 14.40303080883598"}}, "geometry": {"type": "Point", "coordinates": [30.05680704189523, 17.119273948523155]}}, {"type": "Feature", "properties": {"norad_id": 34006, "name": "COSMOS 2251 DEB", "group": "cosmos-2251-debris", "lat": -73.89943129965663, "lon": 62.76925810252468, "alt_km": 598.3727713455755, "timestamp": "2025-12-11T22:43:47.663937+00:00", "meta": {"OBJECT_NAME": "COSMOS 2251 DEB", "OBJECT_ID": "1993-036GR", "EPOCH": "2025-12-11T12:07:42.635712", "MEAN_MOTION": 14.94623961, "ECCENTRICITY": 0.00116095, "INCLINATION": 74.0543, "RA_OF_ASC_NODE": 145.7703, "ARG_OF_PERICENTER": 93.3053, "MEAN_ANOMALY": 323.0725, "EPHEMERIS_TYPE": 0, "CLASSIFICATION_TYPE": "U", "NORAD_CAT_ID": 34006, "ELEMENT_SET_NO": 999, "REV_AT_EPOCH": 88650, "BSTAR": 0.0068858071, "MEAN_MOTION_DOT": 0.00075469, "MEAN_MOTION_DDOT": 0}, "tle": {"line1": "1 34006U 93036GR  25345.50535458  .00075469  00000+0  68858-2 0  9995", "line2": "2 34006  74.0543 145.7703 0011609  93.3053 323.0725 14.94623961886509"}}, "geometry": {"type": "Point", "coordinates": [62.76925810252468, -73.89943129965663]}}, {"type": "Feature", "properties": {"norad_id": 34007, "name": "COSMOS 2251 DEB", "group": "cosmos-2251-debris", "lat": -60.53809988850251, "lon": -42.06051441685462, "alt_km": 715.5286850330722, "timestamp": "2025-12-11T22:43:47.663947+00:00", "meta": {"OBJECT_NAME": "COSMOS 2251 DEB", "OBJECT_ID": "1993-036GS", "EPOCH": "2025-12-11T09:54:53.377920", "MEAN_MOTION": 14.64772399, "ECCENTRICITY": 0.00443519, "INCLINATION": 74.0197, "RA_OF_ASC_NODE": 349.45, "ARG_OF_PERICENTER": 124.847, "MEAN_ANOMALY": 235.6882, "EPHEMERIS_TYPE": 0, "CLASSIFICATION_TYPE": "U", "NORAD_CAT_ID": 34007, "ELEMENT_SET_NO": 999, "REV_AT_EPOCH": 89060, "BSTAR": 0.0012010382, "MEAN_MOTION_DOT": 6.471e-05, "MEAN_MOTION_DDOT": 0}, "tle": {"line1": "1 34007U 93036GS  25345.41311780  .00006471  00000+0  12010-2 0  9992", "line2": "2 34007  74.0197 349.4500 0044351 124.8470 235.6882 14.64772399890601"}}, "geometry": {"type": "Point", "coordinates": [-42.06051441685462, -60.53809988850251]}}, {"type": "Feature", "properties": {"norad_id": 34008, "name": "COSMOS 2251 DEB", "group": "cosmos-2251-debris", "lat": 74.01862771628821, "lon": 60.38246405829444, "alt_km": 783.0608094022309, "timestamp": "2025-12-11T22:43:47.663958+00:00", "meta": {"OBJECT_NAME": "COSMOS 2251 DEB", "OBJECT_ID": "1993-036GT", "EPOCH": "2025-12-11T11:09:28.759680", "MEAN_MOTION": 14.33145147, "ECCENTRICITY": 0.00242739, "INCLINATION": 74.0342, "RA_OF_ASC_NODE": 332.8481, "ARG_OF_PERICENTER": 328.2969, "MEAN_ANOMALY": 154.3936, "EPHEMERIS_TYPE": 0, "CLASSIFICATION_TYPE": "U", "NORAD_CAT_ID": 34008, "ELEMENT_SET_NO": 999, "REV_AT_EPOCH": 87946, "BSTAR": 0.00021413336, "MEAN_MOTION_DOT": 5.63e-06, "MEAN_MOTION_DDOT": 0}, "tle": {"line1": "1 34008U 93036GT  25345.46491620  .00000563  00000+0  21413-3 0  9994", "line2": "2 34008  74.0342 332.8481 0024273 328.2969 154.3936 14.33145147879461"}}, "geometry": {"type": "Point", "coordinates": [60.38246405829444, 74.01862771628821]}}, {"type": "Feature", "properties": {"norad_id": 34009, "name": "COSMOS 2251 DEB", "group": "cosmos-2251-debris", "lat": 51.576139222820814, "lon": 137.2347012703388, "alt_km": 771.5588017635764, "timestamp": "2025-12-11T22:43:47.663968+00:00", "meta": {"OBJECT_NAME": "COSMOS 2251 DEB", "OBJECT_ID": "1993-036GU", "EPOCH": "2025-12-11T11:08:33.510336", "MEAN_MOTION": 14.3322082, "ECCENTRICITY": 0.00264654, "INCLINATION": 74.037, "RA_OF_ASC_NODE": 339.2675, "ARG_OF_PERICENTER": 49.2866, "MEAN_ANOMALY": 105.7119, "EPHEMERIS_TYPE": 0, "CLASSIFICATION_TYPE": "U", "NORAD_CAT_ID": 34009, "ELEMENT_SET_NO": 999, "REV_AT_EPOCH": 87927, "BSTAR": 0.00023136322, "MEAN_MOTION_DOT": 6.13e-06, "MEAN_MOTION_DDOT": 0}, "tle": {"line1": "1 34009U 93036GU  25345.46427674  .00000613  00000+0  23136-3 0  9993", "line2": "2 34009  74.0370 339.2675 0026465  49.2866 105.7119 14.33220820879274"}}, "geometry": {"type": "Point", "coordinates": [137.2347012703388, 51.576139222820814]}}, {"type": "Feature", "properties": {"norad_id": 34010, "name": "COSMOS 2251 DEB", "group": "cosmos-2251-debris", "lat": 61.50050853266351, "lon": 73.0614788812876, "alt_km": 501.8034878198423, "timestamp": "2025-12-11T22:43:47.663978+00:00", "meta": {"OBJECT_NAME": "COSMOS 2251 DEB", "OBJECT_ID": "1993-036GV", "EPOCH": "2025-12-11T06:25:03.078336", "MEAN_MOTION": 15.18254208, "ECCENTRICITY": 0.00048872, "INCLINATION": 73.9973, "RA_OF_ASC_NODE": 286.3957, "ARG_OF_PERICENTER": 67.8921, "MEAN_ANOMALY": 292.2794, "EPHEMERIS_TYPE": 0, "CLASSIFICATION_TYPE": "U", "NORAD_CAT_ID": 34010, "ELEMENT_SET_NO": 999, "REV_AT_EPOCH": 89263, "BSTAR": 0.0084689241, "MEAN_MOTION_DOT": 0.00177852, "MEAN_MOTION_DDOT": 0}, "tle": {"line1": "1 34010U 93036GV  25345.26739674  .00177852  00000+0  84689-2 0  9998", "line2": "2 34010  73.9973 286.3957 0004887  67.8921 292.2794 15.18254208892637"}}, "geometry": {"type": "Point", "coordinates": [73.0614788812876, 61.50050853266351]}}, {"type": "Feature", "properties": {"norad_id": 34011, "name": "COSMOS 2251 DEB", "group": "cosmos-2251-debris", "lat": 67.29100697872445, "lon": 108.39101254376912, "alt_km": 729.7329107212481, "timestamp": "2025-12-11T22:43:47.663988+00:00", "meta": {"OBJECT_NAME": "COSMOS 2251 DEB", "OBJECT_ID": "1993-036GW", "EPOCH": "2025-12-11T08:55:09.473088", "MEAN_MOTION": 14.41760376, "ECCENTRICITY": 0.00354961, "INCLINATION": 74.0156, "RA_OF_ASC_NODE": 332.688, "ARG_OF_PERICENTER": 56.6458, "MEAN_ANOMALY": 303.8087, "EPHEMERIS_TYPE": 0, "CLASSIFICATION_TYPE": "U", "NORAD_CAT_ID": 34011, "ELEMENT_SET_NO": 999, "REV_AT_EPOCH": 87896, "BSTAR": 0.0013577508, "MEAN_MOTION_DOT": 4.442e-05, "MEAN_MOTION_DDOT": 0}, "tle": {"line1": "1 34011U 93036GW  25345.37163742  .00004442  00000+0  13578-2 0  9991", "line2": "2 34011  74.0156 332.6880 0035496  56.6458 303.8087 14.41760376878961"}}, "geometry": {"type": "Point", "coordinates": [108.39101254376912, 67.29100697872445]}}]}